CCSDS_OMM_VERS = 2.0
CREATION_DATE  = 
ORIGINATOR     = 

OBJECT_NAME    = DELTA 2 R/B(1)
OBJECT_ID      = 1990-008B
CENTER_NAME    = EARTH
REF_FRAME      = TEME
TIME_SYSTEM    = UTC
MEAN_ELEMENT_THEORY = SGP/SGP4

EPOCH          = 2026-02-26T20:18:58.483008
MEAN_MOTION    = 15.54306752
ECCENTRICITY   = .00877112
INCLINATION    = 35.6027
RA_OF_ASC_NODE = 245.9300
ARG_OF_PERICENTER = 157.9804
MEAN_ANOMALY   = 202.4733

EPHEMERIS_TYPE = 0
CLASSIFICATION_TYPE = U
NORAD_CAT_ID   = 20453
ELEMENT_SET_NO = 999
REV_AT_EPOCH   = 92444
BSTAR          = .87750122E-3
MEAN_MOTION_DOT = .70904E-3
MEAN_MOTION_DDOT = 0

CCSDS_OMM_VERS = 2.0
CREATION_DATE  = 
ORIGINATOR     = 

OBJECT_NAME    = COSMOS 2058
OBJECT_ID      = 1990-010A
CENTER_NAME    = EARTH
REF_FRAME      = TEME
TIME_SYSTEM    = UTC
MEAN_ELEMENT_THEORY = SGP/SGP4

EPOCH          = 2026-02-26T11:00:03.166272
MEAN_MOTION    = 15.11204715
ECCENTRICITY   = .0010159
INCLINATION    = 82.4669
RA_OF_ASC_NODE = 58.4931
ARG_OF_PERICENTER = 20.9889
MEAN_ANOMALY   = 339.1756

EPHEMERIS_TYPE = 0
CLASSIFICATION_TYPE = U
NORAD_CAT_ID   = 20465
ELEMENT_SET_NO = 999
REV_AT_EPOCH   = 94054
BSTAR          = .23426E-3
MEAN_MOTION_DOT = .3966E-4
MEAN_MOTION_DDOT = 0

CCSDS_OMM_VERS = 2.0
CREATION_DATE  = 
ORIGINATOR     = 

OBJECT_NAME    = SL-14 R/B
OBJECT_ID      = 1990-010B
CENTER_NAME    = EARTH
REF_FRAME      = TEME
TIME_SYSTEM    = UTC
MEAN_ELEMENT_THEORY = SGP/SGP4

EPOCH          = 2026-02-26T02:03:54.669024
MEAN_MOTION    = 14.83557370
ECCENTRICITY   = .00193337
INCLINATION    = 82.4997
RA_OF_ASC_NODE = 278.2909
ARG_OF_PERICENTER = 342.5117
MEAN_ANOMALY   = 17.5430

EPHEMERIS_TYPE = 0
CLASSIFICATION_TYPE = U
NORAD_CAT_ID   = 20466
ELEMENT_SET_NO = 999
REV_AT_EPOCH   = 92676
BSTAR          = .41499888E-4
MEAN_MOTION_DOT = .366E-5
MEAN_MOTION_DDOT = 0

CCSDS_OMM_VERS = 2.0
CREATION_DATE  = 
ORIGINATOR     = 

OBJECT_NAME    = SL-14 R/B
OBJECT_ID      = 1990-018B
CENTER_NAME    = EARTH
REF_FRAME      = TEME
TIME_SYSTEM    = UTC
MEAN_ELEMENT_THEORY = SGP/SGP4

EPOCH          = 2026-02-26T21:40:06.679776
MEAN_MOTION    = 14.82130836
ECCENTRICITY   = .00174657
INCLINATION    = 82.5186
RA_OF_ASC_NODE = 233.1732
ARG_OF_PERICENTER = 124.7984
MEAN_ANOMALY   = 235.4877

EPHEMERIS_TYPE = 0
CLASSIFICATION_TYPE = U
NORAD_CAT_ID   = 20511
ELEMENT_SET_NO = 999
REV_AT_EPOCH   = 92098
BSTAR          = .61936113E-4
MEAN_MOTION_DOT = .518E-5
MEAN_MOTION_DDOT = 0

CCSDS_OMM_VERS = 2.0
CREATION_DATE  = 
ORIGINATOR     = 

OBJECT_NAME    = HST
OBJECT_ID      = 1990-037B
CENTER_NAME    = EARTH
REF_FRAME      = TEME
TIME_SYSTEM    = UTC
MEAN_ELEMENT_THEORY = SGP/SGP4

EPOCH          = 2026-02-26T09:25:34.025088
MEAN_MOTION    = 15.29278631
ECCENTRICITY   = .0001339
INCLINATION    = 28.4693
RA_OF_ASC_NODE = 117.0524
ARG_OF_PERICENTER = 7.6590
MEAN_ANOMALY   = 352.4025

EPHEMERIS_TYPE = 0
CLASSIFICATION_TYPE = U
NORAD_CAT_ID   = 20580
ELEMENT_SET_NO = 999
REV_AT_EPOCH   = 77158
BSTAR          = .24946E-3
MEAN_MOTION_DOT = .7522E-4
MEAN_MOTION_DDOT = 0

CCSDS_OMM_VERS = 2.0
CREATION_DATE  = 
ORIGINATOR     = 

OBJECT_NAME    = SL-16 R/B
OBJECT_ID      = 1990-046B
CENTER_NAME    = EARTH
REF_FRAME      = TEME
TIME_SYSTEM    = UTC
MEAN_ELEMENT_THEORY = SGP/SGP4

EPOCH          = 2026-02-26T17:45:33.770880
MEAN_MOTION    = 14.15015407
ECCENTRICITY   = .00159056
INCLINATION    = 71.0013
RA_OF_ASC_NODE = 320.9105
ARG_OF_PERICENTER = 314.5162
MEAN_ANOMALY   = 45.4660

EPHEMERIS_TYPE = 0
CLASSIFICATION_TYPE = U
NORAD_CAT_ID   = 20625
ELEMENT_SET_NO = 999
REV_AT_EPOCH   = 84684
BSTAR          = -.9283258E-5
MEAN_MOTION_DOT = -.66E-6
MEAN_MOTION_DDOT = 0

CCSDS_OMM_VERS = 2.0
CREATION_DATE  = 
ORIGINATOR     = 

OBJECT_NAME    = COSMOS 2084
OBJECT_ID      = 1990-055A
CENTER_NAME    = EARTH
REF_FRAME      = TEME
TIME_SYSTEM    = UTC
MEAN_ELEMENT_THEORY = SGP/SGP4

EPOCH          = 2026-02-26T21:30:24.786144
MEAN_MOTION    = 15.05570877
ECCENTRICITY   = .00187958
INCLINATION    = 62.7911
RA_OF_ASC_NODE = 12.3871
ARG_OF_PERICENTER = 187.4113
MEAN_ANOMALY   = 172.6713

EPHEMERIS_TYPE = 0
CLASSIFICATION_TYPE = U
NORAD_CAT_ID   = 20663
ELEMENT_SET_NO = 999
REV_AT_EPOCH   = 93469
BSTAR          = .21600627E-3
MEAN_MOTION_DOT = .2936E-4
MEAN_MOTION_DDOT = 0

CCSDS_OMM_VERS = 2.0
CREATION_DATE  = 
ORIGINATOR     = 

OBJECT_NAME    = SL-6 R/B(2)
OBJECT_ID      = 1990-055D
CENTER_NAME    = EARTH
REF_FRAME      = TEME
TIME_SYSTEM    = UTC
MEAN_ELEMENT_THEORY = SGP/SGP4

EPOCH          = 2026-02-26T15:56:56.327712
MEAN_MOTION    = 15.03534534
ECCENTRICITY   = .0023035
INCLINATION    = 62.7828
RA_OF_ASC_NODE = 291.3432
ARG_OF_PERICENTER = 344.2382
MEAN_ANOMALY   = 15.7997

EPHEMERIS_TYPE = 0
CLASSIFICATION_TYPE = U
NORAD_CAT_ID   = 20666
ELEMENT_SET_NO = 999
REV_AT_EPOCH   = 93653
BSTAR          = .15506E-3
MEAN_MOTION_DOT = .1936E-4
MEAN_MOTION_DDOT = 0

CCSDS_OMM_VERS = 2.0
CREATION_DATE  = 
ORIGINATOR     = 

OBJECT_NAME    = SL-8 R/B
OBJECT_ID      = 1990-078B
CENTER_NAME    = EARTH
REF_FRAME      = TEME
TIME_SYSTEM    = UTC
MEAN_ELEMENT_THEORY = SGP/SGP4

EPOCH          = 2026-02-26T06:50:23.223264
MEAN_MOTION    = 14.88633393
ECCENTRICITY   = .0364877
INCLINATION    = 82.9002
RA_OF_ASC_NODE = 261.5655
ARG_OF_PERICENTER = 52.2748
MEAN_ANOMALY   = 311.0951

EPHEMERIS_TYPE = 0
CLASSIFICATION_TYPE = U
NORAD_CAT_ID   = 20775
ELEMENT_SET_NO = 999
REV_AT_EPOCH   = 80760
BSTAR          = .42623E-3
MEAN_MOTION_DOT = .14533E-3
MEAN_MOTION_DDOT = 0

CCSDS_OMM_VERS = 2.0
CREATION_DATE  = 
ORIGINATOR     = 

OBJECT_NAME    = SL-8 R/B
OBJECT_ID      = 1991-006B
CENTER_NAME    = EARTH
REF_FRAME      = TEME
TIME_SYSTEM    = UTC
MEAN_ELEMENT_THEORY = SGP/SGP4

EPOCH          = 2026-02-26T10:33:18.135072
MEAN_MOTION    = 13.77492932
ECCENTRICITY   = .0023592
INCLINATION    = 82.9461
RA_OF_ASC_NODE = 178.4087
ARG_OF_PERICENTER = 68.5540
MEAN_ANOMALY   = 0.0310

EPHEMERIS_TYPE = 0
CLASSIFICATION_TYPE = U
NORAD_CAT_ID   = 21088
ELEMENT_SET_NO = 999
REV_AT_EPOCH   = 76252
BSTAR          = .29041E-4
MEAN_MOTION_DOT = .44E-6
MEAN_MOTION_DDOT = 0

CCSDS_OMM_VERS = 2.0
CREATION_DATE  = 
ORIGINATOR     = 

OBJECT_NAME    = OKEAN-3
OBJECT_ID      = 1991-039A
CENTER_NAME    = EARTH
REF_FRAME      = TEME
TIME_SYSTEM    = UTC
MEAN_ELEMENT_THEORY = SGP/SGP4

EPOCH          = 2026-02-26T18:33:42.606720
MEAN_MOTION    = 15.04715063
ECCENTRICITY   = .00147104
INCLINATION    = 82.5199
RA_OF_ASC_NODE = 347.4164
ARG_OF_PERICENTER = 15.3646
MEAN_ANOMALY   = 344.8024

EPHEMERIS_TYPE = 0
CLASSIFICATION_TYPE = U
NORAD_CAT_ID   = 21397
ELEMENT_SET_NO = 999
REV_AT_EPOCH   = 86339
BSTAR          = .22755267E-3
MEAN_MOTION_DOT = .3238E-4
MEAN_MOTION_DDOT = 0

CCSDS_OMM_VERS = 2.0
CREATION_DATE  = 
ORIGINATOR     = 

OBJECT_NAME    = COSMOS 2151
OBJECT_ID      = 1991-042A
CENTER_NAME    = EARTH
REF_FRAME      = TEME
TIME_SYSTEM    = UTC
MEAN_ELEMENT_THEORY = SGP/SGP4

EPOCH          = 2026-02-26T21:03:06.327648
MEAN_MOTION    = 15.00056470
ECCENTRICITY   = .00141404
INCLINATION    = 82.4936
RA_OF_ASC_NODE = 94.1086
ARG_OF_PERICENTER = 95.8985
MEAN_ANOMALY   = 264.3851

EPHEMERIS_TYPE = 0
CLASSIFICATION_TYPE = U
NORAD_CAT_ID   = 21422
ELEMENT_SET_NO = 999
REV_AT_EPOCH   = 86157
BSTAR          = .11661087E-3
MEAN_MOTION_DOT = .1482E-4
MEAN_MOTION_DDOT = 0

