DELTA 2 R/B(1)          
1 20453U 90008B   26057.84651022  .00070904  00000+0  87750-3 0  9998
2 20453  35.6027 245.9300 0087711 157.9804 202.4733 15.54306752924442
COSMOS 2058             
1 20465U 90010A   26057.45836998  .00003966  00000+0  23426-3 0  9992
2 20465  82.4669  58.4931 0010159  20.9889 339.1756 15.11204715940549
SL-14 R/B               
1 20466U 90010B   26057.08604941  .00000366  00000+0  41500-4 0  9998
2 20466  82.4997 278.2909 0019333 342.5117  17.5430 14.83557370926761
SL-14 R/B               
1 20511U 90018B   26057.90285509  .00000518  00000+0  61936-4 0  9997
2 20511  82.5186 233.1732 0017465 124.7984 235.4877 14.82130836920980
HST                     
1 20580U 90037B   26057.39275492  .00007522  00000+0  24946-3 0  9998
2 20580  28.4693 117.0524 0001339   7.6590 352.4025 15.29278631771585
SL-16 R/B               
1 20625U 90046B   26057.73997420 -.00000066  00000+0 -92833-5 0  9998
2 20625  71.0013 320.9105 0015905 314.5162  45.4660 14.15015407846844
COSMOS 2084             
1 20663U 90055A   26057.89612021  .00002936  00000+0  21601-3 0  9997
2 20663  62.7911  12.3871 0018795 187.4113 172.6713 15.05570877934695
SL-6 R/B(2)             
1 20666U 90055D   26057.66454083  .00001936  00000+0  15506-3 0  9993
2 20666  62.7828 291.3432 0023035 344.2382  15.7997 15.03534534936535
SL-8 R/B                
1 20775U 90078B   26057.28499101  .00014533  00000+0  42623-3 0  9994
2 20775  82.9002 261.5655 0364877  52.2748 311.0951 14.88633393807606
SL-8 R/B                
1 21088U 91006B   26057.43979323  .00000044  00000+0  29041-4 0  9992
2 21088  82.9461 178.4087 0023592  68.5540   0.0310 13.77492932762528
OKEAN-3                 
1 21397U 91039A   26057.77340980  .00003238  00000+0  22755-3 0  9991
2 21397  82.5199 347.4164 0014710  15.3646 344.8024 15.04715063863391
COSMOS 2151             
1 21422U 91042A   26057.87715657  .00001482  00000+0  11661-3 0  9995
2 21422  82.4936  94.1086 0014140  95.8985 264.3851 15.00056470861571
